COSMOS 2251 DEB         
1 35445U 93036AKP 17346.28520032  .00001070  00000-0  31382-3 0  9993
2 35445  74.0461 295.8940 0205631  25.6526 335.4653 14.33527730453573
